{
  "type": "FeatureCollection",
  "features": [
    {
      "type": "Feature",
      "properties": {
        "norad_id": 30282,
        "name": "FENGYUN 1C DEB",
        "group": "fengyun-1c-debris",
        "lat": 77.553959773651,
        "lon": -45.467518791137074,
        "alt_km": 866.4979882882744,
        "timestamp": "2025-12-20T07:33:51.088204+00:00",
        "meta_object_name": "FENGYUN 1C DEB",
        "meta_object_id": "1999-025YT",
        "meta_epoch": "2025-12-19T22:58:05.610432",
        "meta_mean_motion": 14.12985127,
        "meta_eccentricity": 0.02098958,
        "meta_inclination": 98.5014,
        "meta_ra_of_asc_node": 356.8554,
        "meta_arg_of_pericenter": 341.4012,
        "meta_mean_anomaly": 76.2563,
        "meta_ephemeris_type": 0,
        "meta_classification_type": "U",
        "meta_norad_cat_id": 30282,
        "meta_element_set_no": 999,
        "meta_rev_at_epoch": 97453,
        "meta_bstar": 0.00025988615,
        "meta_mean_motion_dot": 5.54e-06,
        "meta_mean_motion_ddot": 0,
        "tle_line1": "1 30282U 99025YT  25353.95700938  .00000554  00000+0  25989-3 0  9998",
        "tle_line2": "2 30282  98.5014 356.8554 0209895 341.4012  76.2563 14.12985127974535"
      },
      "geometry": {
        "type": "Point",
        "coordinates": [
          -45.467518791137074,
          77.553959773651
        ]
      }
    },
    {
      "type": "Feature",
      "properties": {
        "norad_id": 30283,
        "name": "FENGYUN 1C DEB",
        "group": "fengyun-1c-debris",
        "lat": 69.05887059266318,
        "lon": -36.277773541644954,
        "alt_km": 790.3769667906317,
        "timestamp": "2025-12-20T07:33:51.088213+00:00",
        "meta_object_name": "FENGYUN 1C DEB",
        "meta_object_id": "1999-025YU",
        "meta_epoch": "2025-12-19T22:55:19.564320",
        "meta_mean_motion": 14.01976773,
        "meta_eccentricity": 0.01845347,
        "meta_inclination": 98.8667,
        "meta_ra_of_asc_node": 347.445,
        "meta_arg_of_pericenter": 23.2666,
        "meta_mean_anomaly": 29.749,
        "meta_ephemeris_type": 0,
        "meta_classification_type": "U",
        "meta_norad_cat_id": 30283,
        "meta_element_set_no": 999,
        "meta_rev_at_epoch": 96792,
        "meta_bstar": 4.1820492e-05,
        "meta_mean_motion_dot": 3.1e-07,
        "meta_mean_motion_ddot": 0,
        "tle_line1": "1 30283U 99025YU  25353.95508755  .00000031  00000+0  41820-4 0  9995",
        "tle_line2": "2 30283  98.8667 347.4450 0184534  23.2666  29.7490 14.01976773967928"
      },
      "geometry": {
        "type": "Point",
        "coordinates": [
          -36.277773541644954,
          69.05887059266318
        ]
      }
    },
    {
      "type": "Feature",
      "properties": {
        "norad_id": 30284,
        "name": "FENGYUN 1C DEB",
        "group": "fengyun-1c-debris",
        "lat": -59.03127538037132,
        "lon": 77.57294873582418,
        "alt_km": 825.2874627968713,
        "timestamp": "2025-12-20T07:33:51.088224+00:00",
        "meta_object_name": "FENGYUN 1C DEB",
        "meta_object_id": "1999-025YV",
        "meta_epoch": "2025-12-18T16:12:56.542752",
        "meta_mean_motion": 14.28802288,
        "meta_eccentricity": 0.00373312,
        "meta_inclination": 98.7206,
        "meta_ra_of_asc_node": 61.1153,
        "meta_arg_of_pericenter": 91.9018,
        "meta_mean_anomaly": 59.8086,
        "meta_ephemeris_type": 0,
        "meta_classification_type": "U",
        "meta_norad_cat_id": 30284,
        "meta_element_set_no": 999,
        "meta_rev_at_epoch": 97600,
        "meta_bstar": 0.0010740824,
        "meta_mean_motion_dot": 2.683e-05,
        "meta_mean_motion_ddot": 0,
        "tle_line1": "1 30284U 99025YV  25352.67565443  .00002683  00000+0  10741-2 0  9992",
        "tle_line2": "2 30284  98.7206  61.1153 0037331  91.9018  59.8086 14.28802288976004"
      },
      "geometry": {
        "type": "Point",
        "coordinates": [
          77.57294873582418,
          -59.03127538037132
        ]
      }
    },
    {
      "type": "Feature",
      "properties": {
        "norad_id": 30286,
        "name": "FENGYUN 1C DEB",
        "group": "fengyun-1c-debris",
        "lat": -65.71132999358686,
        "lon": 18.261519630696395,
        "alt_km": 904.1784831333816,
        "timestamp": "2025-12-20T07:33:51.088234+00:00",
        "meta_object_name": "FENGYUN 1C DEB",
        "meta_object_id": "1999-025YX",
        "meta_epoch": "2025-12-19T22:02:52.942848",
        "meta_mean_motion": 14.12725887,
        "meta_eccentricity": 0.00649178,
        "meta_inclination": 98.6898,
        "meta_ra_of_asc_node": 358.0673,
        "meta_arg_of_pericenter": 112.6086,
        "meta_mean_anomaly": 324.798,
        "meta_ephemeris_type": 0,
        "meta_classification_type": "U",
        "meta_norad_cat_id": 30286,
        "meta_element_set_no": 999,
        "meta_rev_at_epoch": 97560,
        "meta_bstar": 6.3850262e-05,
        "meta_mean_motion_dot": 7.9e-07,
        "meta_mean_motion_ddot": 0,
        "tle_line1": "1 30286U 99025YX  25353.91866832  .00000079  00000+0  63850-4 0  9996",
        "tle_line2": "2 30286  98.6898 358.0673 0064917 112.6086 324.7980 14.12725887975607"
      },
      "geometry": {
        "type": "Point",
        "coordinates": [
          18.261519630696395,
          -65.71132999358686
        ]
      }
    },
    {
      "type": "Feature",
      "properties": {
        "norad_id": 30287,
        "name": "FENGYUN 1C DEB",
        "group": "fengyun-1c-debris",
        "lat": 27.917121277251965,
        "lon": 23.14444815665794,
        "alt_km": 752.8730706018287,
        "timestamp": "2025-12-20T07:33:51.088244+00:00",
        "meta_object_name": "FENGYUN 1C DEB",
        "meta_object_id": "1999-025YY",
        "meta_epoch": "2025-12-19T01:51:30.740832",
        "meta_mean_motion": 13.68607883,
        "meta_eccentricity": 0.04130504,
        "meta_inclination": 98.637,
        "meta_ra_of_asc_node": 26.6514,
        "meta_arg_of_pericenter": 355.4576,
        "meta_mean_anomaly": 55.1552,
        "meta_ephemeris_type": 0,
        "meta_classification_type": "U",
        "meta_norad_cat_id": 30287,
        "meta_element_set_no": 999,
        "meta_rev_at_epoch": 93945,
        "meta_bstar": 0.00080351503,
        "meta_mean_motion_dot": 1.215e-05,
        "meta_mean_motion_ddot": 0,
        "tle_line1": "1 30287U 99025YY  25353.07743913  .00001215  00000+0  80352-3 0  9996",
        "tle_line2": "2 30287  98.6370  26.6514 0413050 355.4576  55.1552 13.68607883939450"
      },
      "geometry": {
        "type": "Point",
        "coordinates": [
          23.14444815665794,
          27.917121277251965
        ]
      }
    },
    {
      "type": "Feature",
      "properties": {
        "norad_id": 30288,
        "name": "FENGYUN 1C DEB",
        "group": "fengyun-1c-debris",
        "lat": -67.56149467853191,
        "lon": -127.04145092903211,
        "alt_km": 780.1680097432964,
        "timestamp": "2025-12-20T07:33:51.088254+00:00",
        "meta_object_name": "FENGYUN 1C DEB",
        "meta_object_id": "1999-025YZ",
        "meta_epoch": "2025-12-19T16:05:03.704928",
        "meta_mean_motion": 14.32642832,
        "meta_eccentricity": 0.0021159,
        "meta_inclination": 99.3957,
        "meta_ra_of_asc_node": 75.8981,
        "meta_arg_of_pericenter": 300.4874,
        "meta_mean_anomaly": 224.4757,
        "meta_ephemeris_type": 0,
        "meta_classification_type": "U",
        "meta_norad_cat_id": 30288,
        "meta_element_set_no": 999,
        "meta_rev_at_epoch": 97668,
        "meta_bstar": 0.0012356,
        "meta_mean_motion_dot": 3.317e-05,
        "meta_mean_motion_ddot": 0,
        "tle_line1": "1 30288U 99025YZ  25353.67018177  .00003317  00000+0  12356-2 0  9993",
        "tle_line2": "2 30288  99.3957  75.8981 0021159 300.4874 224.4757 14.32642832976689"
      },
      "geometry": {
        "type": "Point",
        "coordinates": [
          -127.04145092903211,
          -67.56149467853191
        ]
      }
    },
    {
      "type": "Feature",
      "properties": {
        "norad_id": 30289,
        "name": "FENGYUN 1C DEB",
        "group": "fengyun-1c-debris",
        "lat": -14.67042890639424,
        "lon": -91.41416129421788,
        "alt_km": 820.4338413266496,
        "timestamp": "2025-12-20T07:33:51.088264+00:00",
        "meta_object_name": "FENGYUN 1C DEB",
        "meta_object_id": "1999-025ZA",
        "meta_epoch": "2025-12-19T12:44:31.279776",
        "meta_mean_motion": 14.25881261,
        "meta_eccentricity": 0.0037687,
        "meta_inclination": 98.9269,
        "meta_ra_of_asc_node": 90.1456,
        "meta_arg_of_pericenter": 309.5741,
        "meta_mean_anomaly": 182.095,
        "meta_ephemeris_type": 0,
        "meta_classification_type": "U",
        "meta_norad_cat_id": 30289,
        "meta_element_set_no": 999,
        "meta_rev_at_epoch": 97178,
        "meta_bstar": 0.0013985,
        "meta_mean_motion_dot": 3.309e-05,
        "meta_mean_motion_ddot": 0,
        "tle_line1": "1 30289U 99025ZA  25353.53091759  .00003309  00000+0  13985-2 0  9996",
        "tle_line2": "2 30289  98.9269  90.1456 0037687 309.5741 182.0950 14.25881261971787"
      },
      "geometry": {
        "type": "Point",
        "coordinates": [
          -91.41416129421788,
          -14.67042890639424
        ]
      }
    }
  ]
}